{
  "type": "FeatureCollection",
  "features": [
    {
      "type": "Feature",
      "properties": {
        "norad_id": 22490,
        "name": "SCD 1",
        "group": "resource",
        "lat": -15.888097591318159,
        "lon": -167.60455125469477,
        "alt_km": 737.7715158622359,
        "timestamp": "2025-12-20T14:38:01.614729+00:00",
        "meta_object_name": "SCD 1",
        "meta_object_id": "1993-009B",
        "meta_epoch": "2025-12-20T02:06:40.199328",
        "meta_mean_motion": 14.46003712,
        "meta_eccentricity": 0.00420998,
        "meta_inclination": 24.9683,
        "meta_ra_of_asc_node": 233.3258,
        "meta_arg_of_pericenter": 42.7923,
        "meta_mean_anomaly": 75.5892,
        "meta_ephemeris_type": 0,
        "meta_classification_type": "U",
        "meta_norad_cat_id": 22490,
        "meta_element_set_no": 999,
        "meta_rev_at_epoch": 73516,
        "meta_bstar": 6.2477864e-05,
        "meta_mean_motion_dot": 4.13e-06,
        "meta_mean_motion_ddot": 0,
        "tle_line1": "1 22490U 93009B   25354.08796527  .00000413  00000+0  62478-4 0  9999",
        "tle_line2": "2 22490  24.9683 233.3258 0042099  42.7923  75.5892 14.46003712735164"
      },
      "geometry": {
        "type": "Point",
        "coordinates": [
          -167.60455125469477,
          -15.888097591318159
        ]
      }
    },
    {
      "type": "Feature",
      "properties": {
        "norad_id": 25397,
        "name": "TECHSAT 1B (GO-32)",
        "group": "resource",
        "lat": -2.053413635911792,
        "lon": 157.67827778449512,
        "alt_km": 814.7343197319142,
        "timestamp": "2025-12-20T14:38:01.614769+00:00",
        "meta_object_name": "TECHSAT 1B (GO-32)",
        "meta_object_id": "1998-043D",
        "meta_epoch": "2025-12-19T22:36:33.577056",
        "meta_mean_motion": 14.24378966,
        "meta_eccentricity": 0.0001832,
        "meta_inclination": 98.9926,
        "meta_ra_of_asc_node": 337.3205,
        "meta_arg_of_pericenter": 45.9373,
        "meta_mean_anomaly": 314.1956,
        "meta_ephemeris_type": 0,
        "meta_classification_type": "U",
        "meta_norad_cat_id": 25397,
        "meta_element_set_no": 999,
        "meta_rev_at_epoch": 42581,
        "meta_bstar": 4.0104e-05,
        "meta_mean_motion_dot": 4.6e-07,
        "meta_mean_motion_ddot": 0,
        "tle_line1": "1 25397U 98043D   25353.94205529  .00000046  00000+0  40104-4 0  9996",
        "tle_line2": "2 25397  98.9926 337.3205 0001832  45.9373 314.1956 14.24378966425818"
      },
      "geometry": {
        "type": "Point",
        "coordinates": [
          157.67827778449512,
          -2.053413635911792
        ]
      }
    },
    {
      "type": "Feature",
      "properties": {
        "norad_id": 25504,
        "name": "SCD 2",
        "group": "resource",
        "lat": -10.10056209549227,
        "lon": 70.88991235102394,
        "alt_km": 734.0492188380313,
        "timestamp": "2025-12-20T14:38:01.614785+00:00",
        "meta_object_name": "SCD 2",
        "meta_object_id": "1998-060A",
        "meta_epoch": "2025-12-20T00:34:20.177760",
        "meta_mean_motion": 14.45427003,
        "meta_eccentricity": 0.00169593,
        "meta_inclination": 24.9945,
        "meta_ra_of_asc_node": 96.9807,
        "meta_arg_of_pericenter": 30.6376,
        "meta_mean_anomaly": 130.1203,
        "meta_ephemeris_type": 0,
        "meta_classification_type": "U",
        "meta_norad_cat_id": 25504,
        "meta_element_set_no": 999,
        "meta_rev_at_epoch": 43437,
        "meta_bstar": 4.6916456e-05,
        "meta_mean_motion_dot": 3.5e-06,
        "meta_mean_motion_ddot": 0,
        "tle_line1": "1 25504U 98060A   25354.02384465  .00000350  00000+0  46916-4 0  9997",
        "tle_line2": "2 25504  24.9945  96.9807 0016959  30.6376 130.1203 14.45427003434376"
      },
      "geometry": {
        "type": "Point",
        "coordinates": [
          70.88991235102394,
          -10.10056209549227
        ]
      }
    },
    {
      "type": "Feature",
      "properties": {
        "norad_id": 25757,
        "name": "DLR-TUBSAT",
        "group": "resource",
        "lat": 66.77858394056402,
        "lon": -179.83500662201635,
        "alt_km": 705.923573349768,
        "timestamp": "2025-12-20T14:38:01.614798+00:00",
        "meta_object_name": "DLR-TUBSAT",
        "meta_object_id": "1999-029B",
        "meta_epoch": "2025-12-17T13:22:10.787520",
        "meta_mean_motion": 14.52359578,
        "meta_eccentricity": 0.00141996,
        "meta_inclination": 98.6566,
        "meta_ra_of_asc_node": 336.2196,
        "meta_arg_of_pericenter": 177.8976,
        "meta_mean_anomaly": 182.2281,
        "meta_ephemeris_type": 0,
        "meta_classification_type": "U",
        "meta_norad_cat_id": 25757,
        "meta_element_set_no": 999,
        "meta_rev_at_epoch": 40688,
        "meta_bstar": 3.7650132e-05,
        "meta_mean_motion_dot": 1.05e-06,
        "meta_mean_motion_ddot": 0,
        "tle_line1": "1 25757U 99029B   25351.55706930  .00000105  00000+0  37650-4 0  9996",
        "tle_line2": "2 25757  98.6566 336.2196 0014199 177.8976 182.2281 14.52359578406886"
      },
      "geometry": {
        "type": "Point",
        "coordinates": [
          -179.83500662201635,
          66.77858394056402
        ]
      }
    },
    {
      "type": "Feature",
      "properties": {
        "norad_id": 25994,
        "name": "TERRA",
        "group": "resource",
        "lat": 55.39667511111691,
        "lon": 34.28327133414467,
        "alt_km": 682.647300827226,
        "timestamp": "2025-12-20T14:38:01.614811+00:00",
        "meta_object_name": "TERRA",
        "meta_object_id": "1999-068A",
        "meta_epoch": "2025-12-20T04:51:47.264832",
        "meta_mean_motion": 14.60909675,
        "meta_eccentricity": 0.00035419,
        "meta_inclination": 97.9738,
        "meta_ra_of_asc_node": 45.6129,
        "meta_arg_of_pericenter": 79.7531,
        "meta_mean_anomaly": 356.7129,
        "meta_ephemeris_type": 0,
        "meta_classification_type": "U",
        "meta_norad_cat_id": 25994,
        "meta_element_set_no": 999,
        "meta_rev_at_epoch": 38347,
        "meta_bstar": 7.8289881e-05,
        "meta_mean_motion_dot": 3.39e-06,
        "meta_mean_motion_ddot": 0,
        "tle_line1": "1 25994U 99068A   25354.20263038  .00000339  00000+0  78290-4 0  9998",
        "tle_line2": "2 25994  97.9738  45.6129 0003541  79.7531 356.7129 14.60909675383471"
      },
      "geometry": {
        "type": "Point",
        "coordinates": [
          34.28327133414467,
          55.39667511111691
        ]
      }
    },
    {
      "type": "Feature",
      "properties": {
        "norad_id": 27004,
        "name": "MAROC-TUBSAT",
        "group": "resource",
        "lat": 1.2854099680903095,
        "lon": 162.9702519886781,
        "alt_km": 1008.810098748545,
        "timestamp": "2025-12-20T14:38:01.614824+00:00",
        "meta_object_name": "MAROC-TUBSAT",
        "meta_object_id": "2001-056D",
        "meta_epoch": "2025-12-20T02:54:22.118112",
        "meta_mean_motion": 13.70253257,
        "meta_eccentricity": 0.00191722,
        "meta_inclination": 99.7914,
        "meta_ra_of_asc_node": 162.6953,
        "meta_arg_of_pericenter": 240.5213,
        "meta_mean_anomaly": 231.4875,
        "meta_ephemeris_type": 0,
        "meta_classification_type": "U",
        "meta_norad_cat_id": 27004,
        "meta_element_set_no": 999,
        "meta_rev_at_epoch": 20166,
        "meta_bstar": 1.8920121e-05,
        "meta_mean_motion_dot": -3e-07,
        "meta_mean_motion_ddot": 0,
        "tle_line1": "1 27004U 01056D   25354.12108933 -.00000030  00000+0  18920-4 0  9998",
        "tle_line2": "2 27004  99.7914 162.6953 0019172 240.5213 231.4875 13.70253257201663"
      },
      "geometry": {
        "type": "Point",
        "coordinates": [
          162.9702519886781,
          1.2854099680903095
        ]
      }
    },
    {
      "type": "Feature",
      "properties": {
        "norad_id": 27424,
        "name": "AQUA",
        "group": "resource",
        "lat": -42.07679603033906,
        "lon": -36.71216470198445,
        "alt_km": 694.7291880227594,
        "timestamp": "2025-12-20T14:38:01.614836+00:00",
        "meta_object_name": "AQUA",
        "meta_object_id": "2002-022A",
        "meta_epoch": "2025-12-19T19:17:33.406368",
        "meta_mean_motion": 14.61824191,
        "meta_eccentricity": 0.00013487,
        "meta_inclination": 98.4046,
        "meta_ra_of_asc_node": 314.798,
        "meta_arg_of_pericenter": 112.3467,
        "meta_mean_anomaly": 286.6091,
        "meta_ephemeris_type": 0,
        "meta_classification_type": "U",
        "meta_norad_cat_id": 27424,
        "meta_element_set_no": 999,
        "meta_rev_at_epoch": 25706,
        "meta_bstar": 0.00015509968,
        "meta_mean_motion_dot": 7.25e-06,
        "meta_mean_motion_ddot": 0,
        "tle_line1": "1 27424U 02022A   25353.80385887  .00000725  00000+0  15510-3 0  9998",
        "tle_line2": "2 27424  98.4046 314.7980 0001348 112.3467 286.6091 14.61824191257063"
      },
      "geometry": {
        "type": "Point",
        "coordinates": [
          -36.71216470198445,
          -42.07679603033906
        ]
      }
    }
  ]
}